[{"OBJECT_NAME":"OBJECT B","OBJECT_ID":"2024-092B","EPOCH":"2026-03-09T22:35:16.756224","MEAN_MOTION":15.26654665,"ECCENTRICITY":0.00097063,"INCLINATION":97.6334,"RA_OF_ASC_NODE":195.5822,"ARG_OF_PERICENTER":166.5945,"MEAN_ANOMALY":193.5553,"EPHEMERIS_TYPE":0,"CLASSIFICATION_TYPE":"U","NORAD_CAT_ID":59774,"ELEMENT_SET_NO":999,"REV_AT_EPOCH":10038,"BSTAR":0.00052893964,"MEAN_MOTION_DOT":0.00013825,"MEAN_MOTION_DDOT":0},{"OBJECT_NAME":"STARLINK-36507","OBJECT_ID":"2026-005F","EPOCH":"2026-03-09T11:49:36.683616","MEAN_MOTION":15.27593745,"ECCENTRICITY":0.00021331,"INCLINATION":43.0013,"RA_OF_ASC_NODE":239.3292,"ARG_OF_PERICENTER":265.9144,"MEAN_ANOMALY":94.1464,"EPHEMERIS_TYPE":0,"CLASSIFICATION_TYPE":"U","NORAD_CAT_ID":67409,"ELEMENT_SET_NO":999,"REV_AT_EPOCH":866,"BSTAR":0.00093302103,"MEAN_MOTION_DOT":0.00025513,"MEAN_MOTION_DDOT":0}]
